{"spkid": "20363505", "covariance": {"data": [["4.719834875721876E-17", "-3.723521562059897E-17", "2.124731914942642E-15", "-5.245229333309774E-15", "4.802599945426536E-15", "-6.937279612240617E-16", "-1.863144937972203E-24"], ["-3.723521562059897E-17", "2.938038944080622E-17", "-1.619977847142122E-15", "3.912203689357731E-15", "-3.532115713960591E-15", "5.421594746392551E-16", "1.485031285473805E-24"], ["2.124731914942642E-15", "-1.619977847142122E-15", "9.873777379043472E-13", "-2.876432015754231E-12", "3.283043738610875E-12", "-8.088742014984704E-14", "3.426989993956277E-23"], ["-5.245229333309774E-15", "3.912203689357731E-15", "-2.876432015754231E-12", "2.136266348650093E-11", "-2.172195278409904E-11", "1.645201527662225E-13", "-1.592661521593371E-22"], ["4.802599945426536E-15", "-3.532115713960591E-15", "3.283043738610875E-12", "-2.172195278409904E-11", "2.2412275534533E-11", "-2.113830082517174E-13", "2.958045686235621E-22"], ["-6.937279612240617E-16", "5.421594746392551E-16", "-8.088742014984704E-14", "1.645201527662225E-13", "-2.113830082517174E-13", "3.250648411372015E-14", "8.441077843491332E-25"], ["-1.863144937972203E-24", "1.485031285473805E-24", "3.426989993956277E-23", "-1.592661521593371E-22", "2.958045686235621E-22", "8.441077843491332E-25", "1.659484639537242E-31"]], "elements": [{"units": null, "title": "eccentricity", "value": ".3368326230897248", "sigma": 6.87010544003647e-09, "name": "e", "label": "e"}, {"label": "q", "sigma": 5.42036801710052e-09, "name": "q", "value": ".5181455783350373", "title": "perihelion distance", "units": "au"}, {"value": "2457891.536371613819", "title": "time of perihelion passage", "units": "TDB", "sigma": 9.93668827076882e-07, "name": "tp", "label": "tp"}, {"name": "om", "sigma": 4.62197614516788e-06, "value": "188.4252934056881", "title": "longitude of the ascending node", "units": "deg", "label": "node"}, {"units": "deg", "title": "argument of perihelion", "value": "59.68755381290269", "sigma": 4.73416048888639e-06, "name": "w", "label": "peri"}, {"units": "deg", "title": "inclination", "value": "3.802416181035098", "name": "i", "sigma": 1.80295546572066e-07, "label": "i"}], "labels": ["e", "q", "tp", "node", "peri", "i", "A2"], "epoch": "2457869.5"}, "elements": [{"label": "e", "name": "e", "sigma": "7.0241E-9", "units": null, "title": "eccentricity", "value": ".3368709366959239"}, {"sigma": "6.0346E-10", "name": "a", "title": "semi-major axis", "value": ".7812751712833665", "units": "au", "label": "a"}, {"name": "q", "sigma": "5.7482E-9", "units": "au", "value": ".5180862725158705", "title": "perihelion distance", "label": "q"}, {"label": "i", "value": "3.775904643193857", "title": "inclination; angle with respect to x-y ecliptic plane", "units": "deg", "sigma": "1.8138E-7", "name": "i"}, {"label": "node", "units": "deg", "title": "longitude of the ascending node", "value": "187.9162049505963", "name": "om", "sigma": "4.5848E-6"}, {"label": "peri", "sigma": "4.7254E-6", "name": "w", "units": "deg", "title": "argument of perihelion", "value": "60.17493646241304"}, {"label": "M", "title": "mean anomaly", "value": "43.25244109850694", "units": "deg", "name": "ma", "sigma": "3.6545E-6"}, {"value": "2461170.195118954558", "title": "time of perihelion passage", "units": "TDB", "sigma": "2.5274E-6", "name": "tp", "label": "tp"}, {"title": "sidereal orbital period", "value": "252.2344843268487", "units": "d", "sigma": "2.9224E-7", "name": "per", "label": "period"}, {"name": "n", "sigma": "1.6536E-9", "units": "deg/d", "title": "mean motion", "value": "1.427243388074992", "label": "n"}, {"units": "au", "value": "1.044464070050863", "title": "aphelion distance", "sigma": "8.0674E-10", "name": "ad", "label": "Q"}], "epoch": "2461200.5"}